STARLINK-1500
1 15744C 20038Q   21326.14601171  .00005632  00000-0  37745-3 0  3261
2 15744  53.0544  78.0972 0001219  83.6695 140.8571 15.06381825    16
